OBJECT_NAME,OBJECT_ID,EPOCH,MEAN_MOTION,ECCENTRICITY,INCLINATION,RA_OF_ASC_NODE,ARG_OF_PERICENTER,MEAN_ANOMALY,EPHEMERIS_TYPE,CLASSIFICATION_TYPE,NORAD_CAT_ID,ELEMENT_SET_NO,REV_AT_EPOCH,BSTAR,MEAN_MOTION_DOT,MEAN_MOTION_DDOT
STARLINK-37461,2026-111AB,2026-06-04T18:00:02.998944,15.80877580,.0001257,53.1579,213.8015,75.4903,359.4161,0,U,69173,999,354,-.20921E-3,-.418E-3,0
STARLINK-37333,2026-111AC,2026-06-04T18:00:02.998944,15.78028360,.0001404,53.1585,213.7954,64.6714,13.1523,0,U,69174,999,354,.11223E-3,.18838E-3,0
STARLINK-37385,2026-111AD,2026-06-04T18:00:02.998944,15.80885121,.0000877,53.1579,213.7886,76.1900,4.9455,0,U,69175,999,354,-.2069E-3,-.41361E-3,0
STARLINK-37414,2026-111AE,2026-06-04T18:00:02.998944,15.80894252,.0000984,53.1582,213.7724,66.3399,22.5071,0,U,69176,999,354,-.30328E-3,-.60198E-3,0
STRIX-7,2026-112A,2026-06-04T15:55:37.358112,15.01360745,.0024446,44.9071,258.2227,336.9002,23.0768,0,U,69177,999,199,.37895E-3,.4757E-4,0
SHENZHOU-23 (SZ-23),2026-113A,2026-06-04T02:43:28.756992,15.60233359,.0009764,41.4695,41.5326,338.4220,21.6207,0,U,69180,999,29125,.30784752E-3,.25633E-3,0
STARLINK-37380,2026-114A,2026-06-04T18:00:02.998944,15.80876356,.000109,53.1589,264.5890,39.9289,356.7265,0,U,69182,999,281,-.1055E-1,-.1828369E-1,0
STARLINK-37089,2026-114B,2026-06-04T18:00:02.998944,15.81135064,.0001057,53.1585,264.5790,43.4399,357.9331,0,U,69183,999,281,-.10658E-1,-.1864347E-1,0
STARLINK-37428,2026-114C,2026-06-04T18:00:02.998944,15.81841528,.0000935,53.1584,264.5673,62.3910,344.8322,0,U,69184,999,281,-.10243E-1,-.1853604E-1,0
STARLINK-37237,2026-114D,2026-06-04T18:00:02.998944,15.83886059,.0001018,53.1581,264.5515,41.1852,13.4580,0,U,69185,999,281,-.95682E-2,-.1901752E-1,0
STARLINK-37365,2026-114E,2026-06-04T18:00:02.998944,15.82887493,.000116,53.1581,264.5455,51.0596,6.4160,0,U,69186,999,281,-.1005E-1,-.1904033E-1,0
STARLINK-37209,2026-114F,2026-06-04T18:00:02.998944,15.82756070,.0001078,53.1583,264.5370,48.4354,13.2706,0,U,69187,999,281,-.93868E-2,-.178365E-1,0
STARLINK-37359,2026-114G,2026-06-04T18:00:02.998944,15.82578159,.0001122,53.1583,264.5296,45.1462,20.0836,0,U,69188,999,281,-.97889E-2,-.1836911E-1,0
STARLINK-37440,2026-114H,2026-06-04T18:00:02.998944,15.90306423,.000105,53.1571,264.2699,56.4776,133.7282,0,U,69189,999,281,-.48915E-2,-.1343495E-1,0
STARLINK-37282,2026-114J,2026-06-04T18:00:02.998944,15.82494327,.0000917,53.1583,264.5098,53.2003,21.3965,0,U,69190,999,281,-.8662E-2,-.1611409E-1,0
STARLINK-37422,2026-114K,2026-06-04T18:00:02.998944,15.84641298,.0000936,53.1576,264.5012,71.4956,7.6097,0,U,69191,999,281,-.84051E-2,-.1716664E-1,0
STARLINK-37424,2026-114L,2026-06-04T18:00:02.998944,15.82656619,.0001089,53.1582,264.5019,46.6591,31.9601,0,U,69192,999,281,-.86129E-2,-.16144E-1,0
STARLINK-36666,2026-114M,2026-06-04T18:00:02.998944,15.82803612,.0001069,53.1583,264.4937,41.1553,41.4764,0,U,69193,999,281,-.87749E-2,-.1650734E-1,0
STARLINK-37355,2026-114N,2026-06-04T18:00:02.998944,15.82930023,.0001125,53.1583,264.4855,52.2350,34.3870,0,U,69194,999,281,-.84209E-2,-.1601088E-1,0
STARLINK-37166,2026-114P,2026-06-04T18:00:02.998944,15.83216151,.0001036,53.1582,264.4687,54.0134,40.6269,0,U,69195,999,281,-.88099E-2,-.1684883E-1,0
STARLINK-36933,2026-114Q,2026-06-04T18:00:02.998944,15.83016552,.000104,53.1579,264.4772,52.7165,37.9350,0,U,69196,999,281,-.78464E-2,-.1510325E-1,0
STARLINK-37419,2026-114R,2026-06-04T18:00:02.998944,15.83338297,.0001211,53.1583,264.4605,51.0147,47.6225,0,U,69197,999,281,-.87739E-2,-.1687591E-1,0
STARLINK-37321,2026-114S,2026-06-04T18:00:02.998944,15.83494785,.0001095,53.1581,264.4528,50.3665,52.1650,0,U,69198,999,281,-.87041E-2,-.1686791E-1,0
STARLINK-37406,2026-114T,2026-06-04T18:00:02.998944,15.83622825,.0001073,53.1579,264.4445,54.6269,51.8534,0,U,69199,999,281,-.86498E-2,-.1686618E-1,0
STARLINK-37761,2026-114U,2026-06-04T18:00:02.998944,15.83774802,.0001027,53.1581,264.4364,61.6814,48.6850,0,U,69200,999,281,-.86434E-2,-.1696187E-1,0
STARLINK-37754,2026-114V,2026-06-04T18:00:02.998944,15.83888946,.0001113,53.1582,264.4251,52.1309,63.7014,0,U,69201,999,281,-.9563E-2,-.1901163E-1,0
STARLINK-37649,2026-114W,2026-06-04T18:00:02.998944,15.84014484,.0001041,53.1580,264.4205,48.4481,69.8094,0,U,69202,999,281,-.85864E-2,-.1703441E-1,0
