STARLINK-37461          
1 69173U 26111AB  26155.75003471 -.00041800  00000+0 -20921-3 0  9994
2 69173  53.1579 213.8015 0001257  75.4903 359.4161 15.80877580  3541
STARLINK-37333          
1 69174U 26111AC  26155.75003471  .00018838  00000+0  11223-3 0  9993
2 69174  53.1585 213.7954 0001404  64.6714  13.1523 15.78028360  3541
STARLINK-37385          
1 69175U 26111AD  26155.75003471 -.00041361  00000+0 -20690-3 0  9991
2 69175  53.1579 213.7886 0000877  76.1900   4.9455 15.80885121  3548
STARLINK-37414          
1 69176U 26111AE  26155.75003471 -.00060198  00000+0 -30328-3 0  9990
2 69176  53.1582 213.7724 0000984  66.3399  22.5071 15.80894252  3541
STRIX-7                 
1 69177U 26112A   26155.66362683  .00004757  00000+0  37895-3 0  9998
2 69177  44.9071 258.2227 0024446 336.9002  23.0768 15.01360745  1995
SHENZHOU-23 (SZ-23)     
1 69180U 26113A   26155.11352728  .00025633  00000+0  30785-3 0  9999
2 69180  41.4695  41.5326 0009764 338.4220  21.6207 15.60233359291258
STARLINK-37380          
1 69182U 26114A   26155.75003471 -.01828369  00000+0 -10550-1 0  9996
2 69182  53.1589 264.5890 0001090  39.9289 356.7265 15.80876356  2817
STARLINK-37089          
1 69183U 26114B   26155.75003471 -.01864347  00000+0 -10658-1 0  9992
2 69183  53.1585 264.5790 0001057  43.4399 357.9331 15.81135064  2810
STARLINK-37428          
1 69184U 26114C   26155.75003471 -.01853604  00000+0 -10243-1 0  9997
2 69184  53.1584 264.5673 0000935  62.3910 344.8322 15.81841528  2817
STARLINK-37237          
1 69185U 26114D   26155.75003471 -.01901752  00000+0 -95682-2 0  9997
2 69185  53.1581 264.5515 0001018  41.1852  13.4580 15.83886059  2818
STARLINK-37365          
1 69186U 26114E   26155.75003471 -.01904033  00000+0 -10050-1 0  9998
2 69186  53.1581 264.5455 0001160  51.0596   6.4160 15.82887493  2813
STARLINK-37209          
1 69187U 26114F   26155.75003471 -.01783650  00000+0 -93868-2 0  9998
2 69187  53.1583 264.5370 0001078  48.4354  13.2706 15.82756070  2810
STARLINK-37359          
1 69188U 26114G   26155.75003471 -.01836911  00000+0 -97889-2 0  9995
2 69188  53.1583 264.5296 0001122  45.1462  20.0836 15.82578159  2812
STARLINK-37440          
1 69189U 26114H   26155.75003471 -.01343495  00000+0 -48915-2 0  9992
2 69189  53.1571 264.2699 0001050  56.4776 133.7282 15.90306423  2816
STARLINK-37282          
1 69190U 26114J   26155.75003471 -.01611409  00000+0 -86620-2 0  9992
2 69190  53.1583 264.5098 0000917  53.2003  21.3965 15.82494327  2818
STARLINK-37422          
1 69191U 26114K   26155.75003471 -.01716664  00000+0 -84051-2 0  9998
2 69191  53.1576 264.5012 0000936  71.4956   7.6097 15.84641298  2813
STARLINK-37424          
1 69192U 26114L   26155.75003471 -.01614400  00000+0 -86129-2 0  9992
2 69192  53.1582 264.5019 0001089  46.6591  31.9601 15.82656619  2819
STARLINK-36666          
1 69193U 26114M   26155.75003471 -.01650734  00000+0 -87749-2 0  9992
2 69193  53.1583 264.4937 0001069  41.1553  41.4764 15.82803612  2818
STARLINK-37355          
1 69194U 26114N   26155.75003471 -.01601088  00000+0 -84209-2 0  9999
2 69194  53.1583 264.4855 0001125  52.2350  34.3870 15.82930023  2815
STARLINK-37166          
1 69195U 26114P   26155.75003471 -.01684883  00000+0 -88099-2 0  9995
2 69195  53.1582 264.4687 0001036  54.0134  40.6269 15.83216151  2811
STARLINK-36933          
1 69196U 26114Q   26155.75003471 -.01510325  00000+0 -78464-2 0  9990
2 69196  53.1579 264.4772 0001040  52.7165  37.9350 15.83016552  2810
STARLINK-37419          
1 69197U 26114R   26155.75003471 -.01687591  00000+0 -87739-2 0  9996
2 69197  53.1583 264.4605 0001211  51.0147  47.6225 15.83338297  2815
STARLINK-37321          
1 69198U 26114S   26155.75003471 -.01686791  00000+0 -87041-2 0  9994
2 69198  53.1581 264.4528 0001095  50.3665  52.1650 15.83494785  2813
STARLINK-37406          
1 69199U 26114T   26155.75003471 -.01686618  00000+0 -86498-2 0  9998
2 69199  53.1579 264.4445 0001073  54.6269  51.8534 15.83622825  2817
STARLINK-37761          
1 69200U 26114U   26155.75003471 -.01696187  00000+0 -86434-2 0  9993
2 69200  53.1581 264.4364 0001027  61.6814  48.6850 15.83774802  2814
STARLINK-37754          
1 69201U 26114V   26155.75003471 -.01901163  00000+0 -95630-2 0  9995
2 69201  53.1582 264.4251 0001113  52.1309  63.7014 15.83888946  2816
STARLINK-37649          
1 69202U 26114W   26155.75003471 -.01703441  00000+0 -85864-2 0  9993
2 69202  53.1580 264.4205 0001041  48.4481  69.8094 15.84014484  2817
